start=new Date('2022-12-24T00:00:00.000Z').valueOf();
sats=[{"OBJECT_ID":"2022-049AK","SEMIMAJOR_AXIS":"6917.839","SITE":"AFETR","LAUNCH_DATE":"2022-05-06","OBJECT_NAME":"STARLINK-3887","MEAN_ANOMALY":"327.6474","FILE":"3720616","OBJECT_TYPE":"PAYLOAD","PERIAPSIS":"537.713","EPOCH":"2022-12-23T23:16:59.429856","RCS_SIZE":"LARGE","COUNTRY_CODE":"US","TLE_LINE1":"1 52484U 22049AK  22357.97013229  .00009261  00000-0  59900-3 0  9996","MEAN_MOTION_DOT":"0.00009261","TLE_LINE2":"2 52484  53.2162 279.1848 0002878  32.4695 327.6474 15.08853396 35523","CLASSIFICATION_TYPE":"U","REV_AT_EPOCH":"3552","MEAN_MOTION_DDOT":"0.0000000000000","MEAN_ELEMENT_THEORY":"SGP4","ARG_OF_PERICENTER":"32.4695","RA_OF_ASC_NODE":"279.1848","TIME_SYSTEM":"UTC","CENTER_NAME":"EARTH","PERIOD":"95.437","BSTAR":"0.00059900000000","ECCENTRICITY":"0.00028780","APOAPSIS":"541.695","MEAN_MOTION":"15.08853396","ELEMENT_SET_NO":"999","GP_ID":"221311813","REF_FRAME":"TEME","NORAD_CAT_ID":"52484","EPHEMERIS_TYPE":"0","DECAY_DATE":null,"INCLINATION":"53.2162"},{"APOAPSIS":"541.409","ECCENTRICITY":"0.00024010","MEAN_MOTION":"15.08839185","ELEMENT_SET_NO":"999","GP_ID":"221312237","EPHEMERIS_TYPE":"0","NORAD_CAT_ID":"52485","REF_FRAME":"TEME","DECAY_DATE":null,"INCLINATION":"53.2183","REV_AT_EPOCH":"3567","MEAN_ELEMENT_THEORY":"SGP4","MEAN_MOTION_DDOT":"0.0000000000000","ARG_OF_PERICENTER":"38.4508","RA_OF_ASC_NODE":"268.7875","TIME_SYSTEM":"UTC","CENTER_NAME":"EARTH","PERIOD":"95.438","BSTAR":"0.00008460300000","FILE":"3720625","OBJECT_TYPE":"PAYLOAD","PERIAPSIS":"538.087","COUNTRY_CODE":"US","EPOCH":"2022-12-24T01:20:11.584896","RCS_SIZE":"LARGE","TLE_LINE1":"1 52485U 22049AL  22358.05568964  .00001058  00000-0  84603-4 0  9993","MEAN_MOTION_DOT":"0.00001058","TLE_LINE2":"2 52485  53.2183 268.7875 0002401  38.4508 321.6655 15.08839185 35673","CLASSIFICATION_TYPE":"U","OBJECT_ID":"2022-049AL","SEMIMAJOR_AXIS":"6917.883","SITE":"AFETR","OBJECT_NAME":"STARLINK-3913","LAUNCH_DATE":"2022-05-06","MEAN_ANOMALY":"321.6655"},{"GP_ID":"221277088","MEAN_MOTION":"15.08843090","ELEMENT_SET_NO":"999","APOAPSIS":"541.356","ECCENTRICITY":"0.00023420","INCLINATION":"53.2182","DECAY_DATE":null,"NORAD_CAT_ID":"52486","EPHEMERIS_TYPE":"0","REF_FRAME":"TEME","RA_OF_ASC_NODE":"281.2983","ARG_OF_PERICENTER":"34.2991","MEAN_ELEMENT_THEORY":"SGP4","MEAN_MOTION_DDOT":"0.0000000000000","REV_AT_EPOCH":"3529","BSTAR":"0.00014870000000","PERIOD":"95.437","TIME_SYSTEM":"UTC","CENTER_NAME":"EARTH","TLE_LINE1":"1 52486U 22049AM  22357.49908075  .00002079  00000-0  14870-3 0  9994","COUNTRY_CODE":"US","EPOCH":"2022-12-23T11:58:40.576800","RCS_SIZE":"LARGE","OBJECT_TYPE":"PAYLOAD","PERIAPSIS":"538.116","FILE":"3720302","CLASSIFICATION_TYPE":"U","TLE_LINE2":"2 52486  53.2182 281.2983 0002342  34.2991 325.8152 15.08843090 35293","MEAN_MOTION_DOT":"0.00002079","SITE":"AFETR","SEMIMAJOR_AXIS":"6917.871","OBJECT_ID":"2022-049AM","MEAN_ANOMALY":"325.8152","OBJECT_NAME":"STARLINK-3918","LAUNCH_DATE":"2022-05-06"},{"RCS_SIZE":"LARGE","EPOCH":"2022-12-24T01:21:34.795872","COUNTRY_CODE":"US","TLE_LINE1":"1 52487U 22049AN  22358.05665273  .00001531  00000-0  11428-3 0  9996","FILE":"3720615","PERIAPSIS":"537.952","OBJECT_TYPE":"PAYLOAD","CLASSIFICATION_TYPE":"U","MEAN_MOTION_DOT":"0.00001531","TLE_LINE2":"2 52487  53.2165 268.7787 0002617  29.2622 330.8516 15.08834562 35673","SEMIMAJOR_AXIS":"6917.897","SITE":"AFETR","OBJECT_ID":"2022-049AN","MEAN_ANOMALY":"330.8516","LAUNCH_DATE":"2022-05-06","OBJECT_NAME":"STARLINK-3902","GP_ID":"221312086","ECCENTRICITY":"0.00026170","APOAPSIS":"541.572","MEAN_MOTION":"15.08834562","ELEMENT_SET_NO":"999","DECAY_DATE":null,"INCLINATION":"53.2165","REF_FRAME":"TEME","EPHEMERIS_TYPE":"0","NORAD_CAT_ID":"52487","ARG_OF_PERICENTER":"29.2622","RA_OF_ASC_NODE":"268.7787","REV_AT_EPOCH":"3567","MEAN_MOTION_DDOT":"0.0000000000000","MEAN_ELEMENT_THEORY":"SGP4","BSTAR":"0.00011428000000","CENTER_NAME":"EARTH","TIME_SYSTEM":"UTC","PERIOD":"95.438"},{"LAUNCH_DATE":"2022-05-06","OBJECT_NAME":"STARLINK-3892","MEAN_ANOMALY":"331.1925","OBJECT_ID":"2022-049AP","SITE":"AFETR","SEMIMAJOR_AXIS":"6917.868","MEAN_MOTION_DOT":"0.00004267","TLE_LINE2":"2 52488  53.2181 279.8309 0002578  28.9209 331.1925 15.08844205 35345","CLASSIFICATION_TYPE":"U","FILE":"3720518","OBJECT_TYPE":"PAYLOAD","PERIAPSIS":"537.949","RCS_SIZE":"LARGE","EPOCH":"2022-12-23T19:50:19.353696","COUNTRY_CODE":"US","TLE_LINE1":"1 52488U 22049AP  22357.82661289  .00004267  00000-0  28599-3 0  9990","CENTER_NAME":"EARTH","TIME_SYSTEM":"UTC","PERIOD":"95.437","BSTAR":"0.00028599000000","REV_AT_EPOCH":"3534","MEAN_MOTION_DDOT":"0.0000000000000","MEAN_ELEMENT_THEORY":"SGP4","ARG_OF_PERICENTER":"28.9209","RA_OF_ASC_NODE":"279.8309","REF_FRAME":"TEME","EPHEMERIS_TYPE":"0","NORAD_CAT_ID":"52488","DECAY_DATE":null,"INCLINATION":"53.2181","ECCENTRICITY":"0.00025780","APOAPSIS":"541.516","ELEMENT_SET_NO":"999","MEAN_MOTION":"15.08844205","GP_ID":"221306464"},{"ARG_OF_PERICENTER":"54.6070","RA_OF_ASC_NODE":"279.2029","REV_AT_EPOCH":"3552","MEAN_ELEMENT_THEORY":"SGP4","MEAN_MOTION_DDOT":"0.0000000000000","BSTAR":"0.00101640000000","CENTER_NAME":"EARTH","TIME_SYSTEM":"UTC","PERIOD":"95.436","GP_ID":"221312070","APOAPSIS":"541.156","ECCENTRICITY":"0.00021790","ELEMENT_SET_NO":"999","MEAN_MOTION":"15.08871748","DECAY_DATE":null,"INCLINATION":"53.2143","NORAD_CAT_ID":"52489","EPHEMERIS_TYPE":"0","REF_FRAME":"TEME","SEMIMAJOR_AXIS":"6917.783","SITE":"AFETR","OBJECT_ID":"2022-049AQ","MEAN_ANOMALY":"305.5126","OBJECT_NAME":"STARLINK-3923","LAUNCH_DATE":"2022-05-06","COUNTRY_CODE":"US","EPOCH":"2022-12-23T23:11:41.357760","RCS_SIZE":"LARGE","TLE_LINE1":"1 52489U 22049AQ  22357.96645090  .00015939  00000-0  10164-2 0  9994","FILE":"3720616","OBJECT_TYPE":"PAYLOAD","PERIAPSIS":"538.141","CLASSIFICATION_TYPE":"U","MEAN_MOTION_DOT":"0.00015939","TLE_LINE2":"2 52489  53.2143 279.2029 0002179  54.6070 305.5126 15.08871748 35526"},{"INCLINATION":"53.2171","DECAY_DATE":null,"REF_FRAME":"TEME","NORAD_CAT_ID":"52490","EPHEMERIS_TYPE":"0","GP_ID":"221307966","ELEMENT_SET_NO":"999","MEAN_MOTION":"15.08834263","ECCENTRICITY":"0.00026040","APOAPSIS":"541.564","BSTAR":"0.00016203000000","PERIOD":"95.438","CENTER_NAME":"EARTH","TIME_SYSTEM":"UTC","RA_OF_ASC_NODE":"270.0567","ARG_OF_PERICENTER":"35.4958","MEAN_MOTION_DDOT":"0.0000000000000","MEAN_ELEMENT_THEORY":"SGP4","REV_AT_EPOCH":"3547","CLASSIFICATION_TYPE":"U","TLE_LINE2":"2 52490  53.2171 270.0567 0002604  35.4958 324.6207 15.08834263 35477","MEAN_MOTION_DOT":"0.00002291","TLE_LINE1":"1 52490U 22049AR  22357.77601406  .00002291  00000-0  16203-3 0  9996","RCS_SIZE":"LARGE","EPOCH":"2022-12-23T18:37:27.614784","COUNTRY_CODE":"US","OBJECT_TYPE":"PAYLOAD","PERIAPSIS":"537.962","FILE":"3720518","MEAN_ANOMALY":"324.6207","LAUNCH_DATE":"2022-05-06","OBJECT_NAME":"STARLINK-3914","SEMIMAJOR_AXIS":"6917.898","SITE":"AFETR","OBJECT_ID":"2022-049AR"},{"TIME_SYSTEM":"UTC","CENTER_NAME":"EARTH","PERIOD":"95.437","BSTAR":"0.00031664000000","REV_AT_EPOCH":"3567","MEAN_MOTION_DDOT":"0.0000000000000","MEAN_ELEMENT_THEORY":"SGP4","ARG_OF_PERICENTER":"22.8989","RA_OF_ASC_NODE":"268.8328","REF_FRAME":"TEME","EPHEMERIS_TYPE":"0","NORAD_CAT_ID":"52491","DECAY_DATE":null,"INCLINATION":"53.2182","ECCENTRICITY":"0.00030190","APOAPSIS":"541.800","ELEMENT_SET_NO":"999","MEAN_MOTION":"15.08850988","GP_ID":"221311819","LAUNCH_DATE":"2022-05-06","OBJECT_NAME":"STARLINK-3908","MEAN_ANOMALY":"337.2137","OBJECT_ID":"2022-049AS","SEMIMAJOR_AXIS":"6917.847","SITE":"AFETR","MEAN_MOTION_DOT":"0.00004756","TLE_LINE2":"2 52491  53.2182 268.8328 0003019  22.8989 337.2137 15.08850988 35671","CLASSIFICATION_TYPE":"U","FILE":"3720616","OBJECT_TYPE":"PAYLOAD","PERIAPSIS":"537.623","RCS_SIZE":"MEDIUM","EPOCH":"2022-12-24T01:09:35.499456","COUNTRY_CODE":"US","TLE_LINE1":"1 52491U 22049AS  22358.04832754  .00004756  00000-0  31664-3 0  9996"},{"MEAN_ANOMALY":"329.2303","LAUNCH_DATE":"2022-05-06","OBJECT_NAME":"STARLINK-3916","SITE":"AFETR","SEMIMAJOR_AXIS":"6917.850","OBJECT_ID":"2022-049AT","CLASSIFICATION_TYPE":"U","MEAN_MOTION_DOT":"0.00006142","TLE_LINE2":"2 52492  53.2141 268.8994 0002470  30.8834 329.2303 15.08850005 35670","EPOCH":"2022-12-24T00:48:24.171840","RCS_SIZE":"LARGE","COUNTRY_CODE":"US","TLE_LINE1":"1 52492U 22049AT  22358.03361310  .00006142  00000-0  40356-3 0  9990","FILE":"3720616","OBJECT_TYPE":"PAYLOAD","PERIAPSIS":"538.006","BSTAR":"0.00040356000000","TIME_SYSTEM":"UTC","CENTER_NAME":"EARTH","PERIOD":"95.437","ARG_OF_PERICENTER":"30.8834","RA_OF_ASC_NODE":"268.8994","REV_AT_EPOCH":"3567","MEAN_MOTION_DDOT":"0.0000000000000","MEAN_ELEMENT_THEORY":"SGP4","DECAY_DATE":null,"INCLINATION":"53.2141","REF_FRAME":"TEME","EPHEMERIS_TYPE":"0","NORAD_CAT_ID":"52492","GP_ID":"221312065","ECCENTRICITY":"0.00024700","APOAPSIS":"541.424","MEAN_MOTION":"15.08850005","ELEMENT_SET_NO":"999"},{"NORAD_CAT_ID":"52493","EPHEMERIS_TYPE":"0","REF_FRAME":"TEME","DECAY_DATE":null,"INCLINATION":"53.2185","APOAPSIS":"541.693","ECCENTRICITY":"0.00028030","ELEMENT_SET_NO":"999","MEAN_MOTION":"15.08837304","GP_ID":"221276841","CENTER_NAME":"EARTH","TIME_SYSTEM":"UTC","PERIOD":"95.438","BSTAR":"0.00012613000000","REV_AT_EPOCH":"3536","MEAN_ELEMENT_THEORY":"SGP4","MEAN_MOTION_DDOT":"0.0000000000000","ARG_OF_PERICENTER":"34.8934","RA_OF_ASC_NODE":"273.3128","MEAN_MOTION_DOT":"0.00001719","TLE_LINE2":"2 52493  53.2185 273.3128 0002803  34.8934 325.2241 15.08837304 35364","CLASSIFICATION_TYPE":"U","FILE":"3720302","PERIAPSIS":"537.815","OBJECT_TYPE":"PAYLOAD","COUNTRY_CODE":"US","RCS_SIZE":"LARGE","EPOCH":"2022-12-23T01:13:30.952416","TLE_LINE1":"1 52493U 22049AU  22357.05105269  .00001719  00000-0  12613-3 0  9991","OBJECT_NAME":"STARLINK-3883","LAUNCH_DATE":"2022-05-06","MEAN_ANOMALY":"325.2241","OBJECT_ID":"2022-049AU","SITE":"AFETR","SEMIMAJOR_AXIS":"6917.889"}];
